OBJECT_NAME,OBJECT_ID,EPOCH,MEAN_MOTION,ECCENTRICITY,INCLINATION,RA_OF_ASC_NODE,ARG_OF_PERICENTER,MEAN_ANOMALY,EPHEMERIS_TYPE,CLASSIFICATION_TYPE,NORAD_CAT_ID,ELEMENT_SET_NO,REV_AT_EPOCH,BSTAR,MEAN_MOTION_DOT,MEAN_MOTION_DDOT
BEIDOU-2 G8 (C01),2019-027A,2026-06-17T20:29:58.623072,1.00270579,.0010191,1.6599,74.4865,281.8231,1.8271,0,U,44231,999,2608,0,-.253E-5,0
COSMOS 2534 (758),2019-030A,2026-06-16T03:36:36.198144,2.13102184,.00133893,64.3685,192.6516,275.0852,148.6554,0,U,44299,999,5490,0,.77E-6,0
BEIDOU-3 IGSO-2 (C39),2019-035A,2026-06-14T14:58:00.763680,1.00267330,.0039904,55.2456,158.8849,216.4592,231.8306,0,U,44337,999,2564,0,-.71E-6,0
GPS BIII-2  (PRN 18),2019-056A,2026-06-17T15:37:03.434016,2.00569508,.0062201,55.6366,331.1236,197.6161,164.5159,0,U,44506,999,5008,0,-.87E-6,0
BEIDOU-3 M24 (C46),2019-061A,2026-06-17T05:49:07.350816,1.86229098,.00083133,54.3962,182.7262,358.7038,1.3256,0,U,44542,999,4579,0,.6E-6,0
BEIDOU-3 M23 (C45),2019-061B,2026-06-16T13:20:41.756640,1.86227264,.00056705,54.3947,182.7174,338.0060,193.4228,0,U,44543,999,4578,0,.67E-6,0
EUTELSAT 5 WEST B (EGNOS/PRN 121),2019-067A,2026-06-17T19:47:20.032224,1.00272135,.0002951,0.0635,346.2699,98.1111,113.5537,0,U,44624,999,2444,0,-.47E-6,0
BEIDOU-3 M22 (C44),2019-078A,2026-06-16T13:05:14.505792,1.86227179,.00063479,53.9366,299.8507,50.5966,309.4493,0,U,44793,999,4463,0,-.69E-6,0
BEIDOU-3 M21 (C43),2019-078B,2026-06-16T03:33:30.281760,1.86227629,.00042219,53.9102,299.8261,48.5943,311.4305,0,U,44794,999,4463,0,-.69E-6,0
COSMOS 2544 (759),2019-088A,2026-06-17T00:42:18.240192,2.13102676,.0013157,65.5654,73.7363,258.7158,101.1710,0,U,44850,999,5071,0,-.19E-6,0
BEIDOU-3 M19 (C41),2019-090A,2026-06-14T12:33:33.779232,1.86231333,.00179222,56.5562,62.8792,297.9457,249.9520,0,U,44864,999,4418,0,-.53E-6,0
BEIDOU-3 M20 (C42),2019-090B,2026-06-15T10:45:46.195776,1.86231059,.00157003,56.5591,62.8831,311.8905,225.8558,0,U,44865,999,4418,0,-.51E-6,0
BEIDOU-3 G2 (C60),2020-017A,2026-06-17T20:11:37.882752,1.00271821,.000202,2.8657,47.3609,32.8268,208.8897,0,U,45344,999,2326,0,-.147E-5,0
COSMOS 2545 (760),2020-018A,2026-06-16T06:51:36.735840,2.13102431,.0008397,64.3556,312.4510,230.0424,129.8687,0,U,45358,999,4864,0,-.55E-6,0
BEIDOU-3 G3 (C61),2020-040A,2026-06-17T20:20:14.558208,1.00266048,.0002365,2.4490,67.4442,335.7909,278.4060,0,U,45807,999,2207,0,-.36E-5,0
GPS BIII-3  (PRN 23),2020-041A,2026-06-14T13:20:43.219392,2.00558471,.0063716,56.6678,29.0455,204.6721,21.4099,0,U,45854,999,4398,0,-.64E-6,0
GALAXY 30 (WAAS/PRN 135),2020-056C,2026-06-17T17:30:27.955872,1.00271477,.0002128,0.0146,50.6946,36.1125,316.7814,0,U,46114,999,2129,0,.32E-6,0
COSMOS 2547 (705K),2020-075A,2026-06-12T17:18:40.313088,2.13100258,.00092459,64.5993,192.6246,239.6069,120.3788,0,U,46805,999,4381,0,.119E-5,0
GPS BIII-4  (PRN 14),2020-078A,2026-06-17T18:15:48.087936,2.00564801,.0073563,53.9795,210.7551,207.2683,149.2085,0,U,46826,999,4151,0,.36E-6,0
GPS BIII-5  (PRN 11),2021-054A,2026-06-16T22:59:18.041280,2.00568788,.00253425,55.1744,332.4683,228.5515,94.2637,0,U,48859,999,3674,0,-.87E-6,0
QZS-1R (QZSS/PRN 196),2021-096A,2026-06-16T15:19:17.320224,1.00255427,.07548668,37.4612,79.5914,271.7927,277.3771,0,U,49336,999,1700,0,-.283E-5,0
GSAT0223 (GALILEO 27),2021-116A,2026-06-17T06:52:18.734880,1.70475765,.0001515,57.1604,341.6715,187.4025,353.2654,0,U,49809,999,2818,0,-.89E-6,0
GSAT0224 (GALILEO 28),2021-116B,2026-06-17T16:26:51.158112,1.70475835,.0001178,57.1614,341.6595,159.9766,18.1830,0,U,49810,999,2821,0,-.9E-6,0
COSMOS 2557 (706K),2022-075A,2026-06-17T13:52:36.228576,2.13102014,.0010282,64.2984,314.4718,274.7877,85.0819,0,U,52984,999,3072,0,-.57E-6,0
COSMOS 2559 (707K),2022-130A,2026-06-16T22:17:07.799136,2.13101570,.00125777,64.2714,314.5777,178.1381,181.8528,0,U,54031,999,2868,0,-.56E-6,0
COSMOS 2564 (761),2022-161A,2026-06-17T05:47:11.222304,2.13101998,.00121934,64.7416,192.7100,224.7790,135.1776,0,U,54377,999,2763,0,.64E-6,0
GPS BIII-6  (PRN 28),2023-009A,2026-06-16T14:55:07.086720,2.00571344,.000625,55.1227,148.5411,321.9869,156.3274,0,U,55268,999,2523,0,.44E-6,0
BEIDOU-3 G4 (C62),2023-066A,2026-06-17T20:28:43.743648,1.00273471,.0004349,0.4858,331.7214,180.6085,200.9877,0,U,56564,999,1140,0,-.286E-5,0
NVS-01 (IRNSS-1J),2023-076A,2026-06-17T20:25:36.543360,1.00264456,.0003141,2.1638,244.3152,36.0811,61.5367,0,U,56759,999,1112,0,-.341E-5,0
COSMOS 2569 (703K),2023-114A,2026-06-15T20:17:45.026592,2.13103628,.0010732,65.3014,72.6657,296.8430,63.0791,0,U,57517,999,2223,0,-.23E-6,0
BEIDOU-3 M28 (C50),2023-207A,2026-06-17T07:10:58.066752,1.86229664,.0003262,55.7528,62.2992,347.4527,12.5803,0,U,58654,999,1684,0,-.54E-6,0
